OBJECT_NAME,OBJECT_ID,EPOCH,MEAN_MOTION,ECCENTRICITY,INCLINATION,RA_OF_ASC_NODE,ARG_OF_PERICENTER,MEAN_ANOMALY,EPHEMERIS_TYPE,CLASSIFICATION_TYPE,NORAD_CAT_ID,ELEMENT_SET_NO,REV_AT_EPOCH,BSTAR,MEAN_MOTION_DOT,MEAN_MOTION_DDOT
KUIPER-00603,2026-118W,2026-06-07T18:00:04.999104,15.37310135,.0005801,51.8667,98.9014,127.4427,129.7306,0,U,69287,999,239,.17133E-2,.63791E-3,0
KUIPER-00605,2026-118X,2026-06-07T18:00:04.999104,15.36856928,.0007869,51.8656,98.9327,132.1101,109.7895,0,U,69288,999,223,.16749E-2,.61448E-3,0
KUIPER-00606,2026-118Y,2026-06-07T18:00:04.999104,15.37572215,.0004788,51.8691,98.8838,120.7482,143.9765,0,U,69289,999,208,.1794E-2,.67406E-3,0
KUIPER-00607,2026-118Z,2026-06-07T18:00:04.999104,15.37177229,.0006532,51.8677,98.9066,123.9893,130.5731,0,U,69290,999,204,.20518E-2,.76277E-3,0
KUIPER-00608,2026-118AA,2026-06-07T18:00:04.999104,15.35974291,.0009686,51.8596,98.9685,145.1066,79.3844,0,U,69291,999,201,.17251E-2,.61553E-3,0
KUIPER-00610,2026-118AB,2026-06-07T18:00:04.999104,15.38098507,.0003018,51.8718,98.8440,106.4883,174.8973,0,U,69292,999,193,.18754E-2,.7173E-3,0
KUIPER-00613,2026-118AC,2026-06-07T18:00:04.999104,15.35267162,.0010395,51.8619,98.9927,153.8571,58.7293,0,U,69293,999,130,.17146E-2,.59798E-3,0
KUIPER-00618,2026-118AD,2026-06-07T18:00:04.999104,15.38517756,.0002106,51.8718,98.8172,68.7247,225.2126,0,U,69294,999,130,.19806E-2,.76869E-3,0
KUIPER-00620,2026-118AE,2026-06-07T18:00:04.999104,15.38168709,.0003057,51.8714,98.8400,91.5709,192.5600,0,U,69295,999,247,.17955E-2,.68788E-3,0
STARLINK-37501,2026-119A,2026-06-07T18:00:04.999104,15.79899933,.0000835,97.2834,184.0494,121.8548,91.5801,0,U,69296,999,237,.51037E-3,.94655E-3,0
STARLINK-37496,2026-119B,2026-06-07T18:00:04.999104,15.79867444,.0000737,97.2837,184.0480,123.7159,86.9803,0,U,69297,999,237,.47867E-3,.88574E-3,0
STARLINK-37519,2026-119C,2026-06-07T18:00:04.999104,15.80963188,.0001519,97.2835,184.0540,84.4393,140.0473,0,U,69298,999,237,-.13519E-2,-.253446E-2,0
STARLINK-37455,2026-119D,2026-06-07T18:00:04.999104,15.80026066,.0001705,97.2835,184.0523,62.4591,157.8684,0,U,69299,999,237,-.91063E-3,-.165267E-2,0
STARLINK-37456,2026-119E,2026-06-07T18:00:04.999104,15.80830955,.000079,97.2831,184.0559,86.7035,142.2858,0,U,69300,999,237,-.12359E-3,-.23765E-3,0
STARLINK-37630,2026-119F,2026-06-07T18:00:04.999104,15.80833725,.0000604,97.2835,184.0567,104.5435,127.0239,0,U,69301,999,253,-.15207E-3,-.29195E-3,0
STARLINK-37804,2026-119G,2026-06-07T18:00:04.999104,15.80827117,.0000796,97.2837,184.0574,132.2574,101.0105,0,U,69302,999,253,-.13737E-4,-.2773E-4,0
STARLINK-37730,2026-119H,2026-06-07T18:00:04.999104,15.80746958,.0000536,97.2831,184.0613,56.1193,185.5987,0,U,69303,999,253,.68264E-3,.132195E-2,0
STARLINK-37731,2026-119J,2026-06-07T18:00:04.999104,15.80789415,.0001723,97.2833,184.0615,96.0142,146.4615,0,U,69304,999,253,.30472E-3,.5855E-3,0
STARLINK-37734,2026-119K,2026-06-07T18:00:04.999104,15.80792284,.0000744,97.2834,184.0631,128.8076,118.8718,0,U,69305,999,253,.26967E-3,.51763E-3,0
STARLINK-37701,2026-119L,2026-06-07T18:00:04.999104,15.80826905,.0000535,97.2834,184.0638,86.2535,162.9513,0,U,69306,999,253,-.12321E-3,-.23688E-3,0
STARLINK-37732,2026-119M,2026-06-07T18:00:04.999104,15.80833353,.0001641,97.2835,184.0656,90.0293,161.5512,0,U,69307,999,253,-.13372E-3,-.25701E-3,0
STARLINK-37689,2026-119N,2026-06-07T18:00:04.999104,15.80793960,.0000629,97.2831,184.0679,93.2563,165.0953,0,U,69308,999,253,.10633E-3,.20251E-3,0
STARLINK-37619,2026-119P,2026-06-07T18:00:04.999104,15.80765904,.0001538,97.2832,184.0696,86.9263,174.3996,0,U,69309,999,253,.61522E-3,.119051E-2,0
STARLINK-37794,2026-119Q,2026-06-07T18:00:04.999104,15.82264953,.0001533,97.2833,184.0745,97.4190,175.7242,0,U,69310,999,253,-.10306E-1,-.185292E-1,0
STARLINK-37795,2026-119R,2026-06-07T18:00:04.999104,15.82475704,.0001821,97.2833,184.0753,86.9458,188.0892,0,U,69311,999,253,-.1103E-1,-.1983081E-1,0
STARLINK-37790,2026-119S,2026-06-07T18:00:04.999104,15.82924315,.0001596,97.2833,184.0770,94.6719,185.2496,0,U,69312,999,253,-.12666E-1,-.2326655E-1,0
STARLINK-37676,2026-119T,2026-06-07T18:00:04.999104,15.84369505,.0001521,97.2833,184.0802,91.6325,197.1435,0,U,69313,999,253,-.12717E-1,-.2477229E-1,0
STARLINK-37617,2026-119U,2026-06-07T18:00:04.999104,15.84670360,.0001605,97.2832,184.0814,96.8484,196.1538,0,U,69314,999,253,-.12591E-1,-.2487E-1,0
STARLINK-37627,2026-119V,2026-06-07T18:00:04.999104,15.84403895,.0001324,97.2835,184.0829,95.9802,199.4829,0,U,69315,999,253,-.12772E-1,-.2489675E-1,0
STARLINK-37738,2026-119W,2026-06-07T18:00:04.999104,15.81118158,.0001825,97.2834,184.0799,84.2568,202.5459,0,U,69316,999,253,-.27437E-2,-.50354E-2,0
