KUIPER-00603            
1 69287U 26118W   26158.75005786  .00063791  00000+0  17133-2 0  9992
2 69287  51.8667  98.9014 0005801 127.4427 129.7306 15.37310135  2390
KUIPER-00605            
1 69288U 26118X   26158.75005786  .00061448  00000+0  16749-2 0  9992
2 69288  51.8656  98.9327 0007869 132.1101 109.7895 15.36856928  2232
KUIPER-00606            
1 69289U 26118Y   26158.75005786  .00067406  00000+0  17940-2 0  9997
2 69289  51.8691  98.8838 0004788 120.7482 143.9765 15.37572215  2084
KUIPER-00607            
1 69290U 26118Z   26158.75005786  .00076277  00000+0  20518-2 0  9990
2 69290  51.8677  98.9066 0006532 123.9893 130.5731 15.37177229  2041
KUIPER-00608            
1 69291U 26118AA  26158.75005786  .00061553  00000+0  17251-2 0  9992
2 69291  51.8596  98.9685 0009686 145.1066  79.3844 15.35974291  2014
KUIPER-00610            
1 69292U 26118AB  26158.75005786  .00071730  00000+0  18754-2 0  9990
2 69292  51.8718  98.8440 0003018 106.4883 174.8973 15.38098507  1933
KUIPER-00613            
1 69293U 26118AC  26158.75005786  .00059798  00000+0  17146-2 0  9995
2 69293  51.8619  98.9927 0010395 153.8571  58.7293 15.35267162  1309
KUIPER-00618            
1 69294U 26118AD  26158.75005786  .00076869  00000+0  19806-2 0  9999
2 69294  51.8718  98.8172 0002106  68.7247 225.2126 15.38517756  1302
KUIPER-00620            
1 69295U 26118AE  26158.75005786  .00068788  00000+0  17955-2 0  9994
2 69295  51.8714  98.8400 0003057  91.5709 192.5600 15.38168709  2478
STARLINK-37501          
1 69296U 26119A   26158.75005786  .00094655  00000+0  51037-3 0  9998
2 69296  97.2834 184.0494 0000835 121.8548  91.5801 15.79899933  2371
STARLINK-37496          
1 69297U 26119B   26158.75005786  .00088574  00000+0  47867-3 0  9998
2 69297  97.2837 184.0480 0000737 123.7159  86.9803 15.79867444  2372
STARLINK-37519          
1 69298U 26119C   26158.75005786 -.00253446  00000+0 -13519-2 0  9999
2 69298  97.2835 184.0540 0001519  84.4393 140.0473 15.80963188  2379
STARLINK-37455          
1 69299U 26119D   26158.75005786 -.00165267  00000+0 -91063-3 0  9994
2 69299  97.2835 184.0523 0001705  62.4591 157.8684 15.80026066  2379
STARLINK-37456          
1 69300U 26119E   26158.75005786 -.00023765  00000+0 -12359-3 0  9994
2 69300  97.2831 184.0559 0000790  86.7035 142.2858 15.80830955  2373
STARLINK-37630          
1 69301U 26119F   26158.75005786 -.00029195  00000+0 -15207-3 0  9993
2 69301  97.2835 184.0567 0000604 104.5435 127.0239 15.80833725  2534
STARLINK-37804          
1 69302U 26119G   26158.75005786 -.00002773  00000+0 -13737-4 0  9994
2 69302  97.2837 184.0574 0000796 132.2574 101.0105 15.80827117  2531
STARLINK-37730          
1 69303U 26119H   26158.75005786  .00132195  00000+0  68264-3 0  9999
2 69303  97.2831 184.0613 0000536  56.1193 185.5987 15.80746958  2531
STARLINK-37731          
1 69304U 26119J   26158.75005786  .00058550  00000+0  30472-3 0  9992
2 69304  97.2833 184.0615 0001723  96.0142 146.4615 15.80789415  2531
STARLINK-37734          
1 69305U 26119K   26158.75005786  .00051763  00000+0  26967-3 0  9996
2 69305  97.2834 184.0631 0000744 128.8076 118.8718 15.80792284  2538
STARLINK-37701          
1 69306U 26119L   26158.75005786 -.00023688  00000+0 -12321-3 0  9993
2 69306  97.2834 184.0638 0000535  86.2535 162.9513 15.80826905  2532
STARLINK-37732          
1 69307U 26119M   26158.75005786 -.00025701  00000+0 -13372-3 0  9999
2 69307  97.2835 184.0656 0001641  90.0293 161.5512 15.80833353  2536
STARLINK-37689          
1 69308U 26119N   26158.75005786  .00020251  00000+0  10633-3 0  9990
2 69308  97.2831 184.0679 0000629  93.2563 165.0953 15.80793960  2535
STARLINK-37619          
1 69309U 26119P   26158.75005786  .00119051  00000+0  61522-3 0  9991
2 69309  97.2832 184.0696 0001538  86.9263 174.3996 15.80765904  2539
STARLINK-37794          
1 69310U 26119Q   26158.75005786 -.01852920  00000+0 -10306-1 0  9997
2 69310  97.2833 184.0745 0001533  97.4190 175.7242 15.82264953  2537
STARLINK-37795          
1 69311U 26119R   26158.75005786 -.01983081  00000+0 -11030-1 0  9996
2 69311  97.2833 184.0753 0001821  86.9458 188.0892 15.82475704  2533
STARLINK-37790          
1 69312U 26119S   26158.75005786 -.02326655  00000+0 -12666-1 0  9992
2 69312  97.2833 184.0770 0001596  94.6719 185.2496 15.82924315  2534
STARLINK-37676          
1 69313U 26119T   26158.75005786 -.02477229  00000+0 -12717-1 0  9994
2 69313  97.2833 184.0802 0001521  91.6325 197.1435 15.84369505  2530
STARLINK-37617          
1 69314U 26119U   26158.75005786 -.02487000  00000+0 -12591-1 0  9993
2 69314  97.2832 184.0814 0001605  96.8484 196.1538 15.84670360  2536
STARLINK-37627          
1 69315U 26119V   26158.75005786 -.02489675  00000+0 -12772-1 0  9995
2 69315  97.2835 184.0829 0001324  95.9802 199.4829 15.84403895  2534
STARLINK-37738          
1 69316U 26119W   26158.75005786 -.00503540  00000+0 -27437-2 0  9997
2 69316  97.2834 184.0799 0001825  84.2568 202.5459 15.81118158  2533
